OBJECT_NAME,OBJECT_ID,EPOCH,MEAN_MOTION,ECCENTRICITY,INCLINATION,RA_OF_ASC_NODE,ARG_OF_PERICENTER,MEAN_ANOMALY,EPHEMERIS_TYPE,CLASSIFICATION_TYPE,NORAD_CAT_ID,ELEMENT_SET_NO,REV_AT_EPOCH,BSTAR,MEAN_MOTION_DOT,MEAN_MOTION_DDOT
GEOSCAN 3 (RS92S3),2025-155T,2026-06-05T22:00:10.954944,15.35012282,.0005016,97.4538,126.6661,198.8765,161.2293,0,U,64893,999,7912,.69857E-3,.23701E-3,0
INNOSAT 3 (RS92S0),2025-155U,2026-06-05T21:39:01.302624,15.43019020,.0004395,97.4489,128.1352,181.2663,178.8574,0,U,64894,999,7922,.11655E-2,.51599E-3,0
KNACKSAT-2,1998-067XZ,2026-06-05T02:39:22.539456,15.58840087,.00107425,51.6316,355.1703,163.6532,196.4809,0,U,67683,999,1839,.6916844E-3,.54547E-3,0
