KNACKSAT-2              
1 67683U 98067XZ  26156.11067754  .00054547  00000+0  69168-3 0  9998
2 67683  51.6316 355.1703 0010742 163.6532 196.4809 15.58840087 18392
GEOSCAN 3 (RS92S3)      
1 64893U 25155T   26156.91679346  .00023701  00000+0  69857-3 0  9993
2 64893  97.4538 126.6661 0005016 198.8765 161.2293 15.35012282 79124
INNOSAT 3 (RS92S0)      
1 64894U 25155U   26156.90209841  .00051599  00000+0  11655-2 0  9990
2 64894  97.4489 128.1352 0004395 181.2663 178.8574 15.43019020 79229
